{"type": "FeatureCollection", "features": [ {"type": "Feature", "properties": {"norad_id": 66605, "name": "STARLINK-36052", "group": "last-30-days", "lat": 42.70530966216289, "lon": -138.7581976120377, "alt_km": 439.7132376138061, "timestamp": "2025-12-24T16:52:40.177025+00:00", "meta": {"OBJECT_NAME": "STARLINK-36052", "OBJECT_ID": "2025-270T", "EPOCH": "2025-12-23T18:40:57.101088", "MEAN_MOTION": 15.40742025, "ECCENTRICITY": 0.00041745, "INCLINATION": 43.0051, "RA_OF_ASC_NODE": 128.5705, "ARG_OF_PERICENTER": 274.749, "MEAN_ANOMALY": 85.2889, "EPHEMERIS_TYPE": 0, "CLASSIFICATION_TYPE": "U", "NORAD_CAT_ID": 66605, "ELEMENT_SET_NO": 999, "REV_AT_EPOCH": 605, "BSTAR": 0.0011032825, "MEAN_MOTION_DOT": 0.00046136, "MEAN_MOTION_DDOT": 0}, "tle": {"line1": "1 66605U 25270T   25357.77843867  .00046136  00000+0  11033-2 0  9990", "line2": "2 66605  43.0051 128.5705 0004174 274.7490  85.2889 15.40742025  6056"}}, "geometry": {"type": "Point", "coordinates": [-138.7581976120377, 42.70530966216289]}}, {"type": "Feature", "properties": {"norad_id": 66606, "name": "STARLINK-36063", "group": "last-30-days", "lat": -1.8358199061471092, "lon": -55.00074521711096, "alt_km": 443.96993515021586, "timestamp": "2025-12-24T16:52:40.177036+00:00", "meta": {"OBJECT_NAME": "STARLINK-36063", "OBJECT_ID": "2025-270U", "EPOCH": "2025-12-24T08:00:03.000384", "MEAN_MOTION": 15.40647073, "ECCENTRICITY": 0.00014242, "INCLINATION": 43.0007, "RA_OF_ASC_NODE": 125.16, "ARG_OF_PERICENTER": 265.2346, "MEAN_ANOMALY": 23.4701, "EPHEMERIS_TYPE": 0, "CLASSIFICATION_TYPE": "U", "NORAD_CAT_ID": 66606, "ELEMENT_SET_NO": 999, "REV_AT_EPOCH": 610, "BSTAR": 0.0016651706, "MEAN_MOTION_DOT": 0.0006977, "MEAN_MOTION_DDOT": 0}, "tle": {"line1": "1 66606U 25270U   25358.33336806  .00069770  00000+0  16652-2 0  9995", "line2": "2 66606  43.0007 125.1600 0001424 265.2346  23.4701 15.40647073  6105"}}, "geometry": {"type": "Point", "coordinates": [-55.00074521711096, -1.8358199061471092]}}, {"type": "Feature", "properties": {"norad_id": 66607, "name": "STARLINK-35993", "group": "last-30-days", "lat": 40.29007295267517, "lon": -122.25552812252525, "alt_km": 439.2331051224646, "timestamp": "2025-12-24T16:52:40.177048+00:00", "meta": {"OBJECT_NAME": "STARLINK-35993", "OBJECT_ID": "2025-270V", "EPOCH": "2025-12-23T18:37:43.843296", "MEAN_MOTION": 15.4077053, "ECCENTRICITY": 0.00032962, "INCLINATION": 43.0018, "RA_OF_ASC_NODE": 128.5532, "ARG_OF_PERICENTER": 268.5661, "MEAN_ANOMALY": 91.4818, "EPHEMERIS_TYPE": 0, "CLASSIFICATION_TYPE": "U", "NORAD_CAT_ID": 66607, "ELEMENT_SET_NO": 999, "REV_AT_EPOCH": 595, "BSTAR": 0.0015822555, "MEAN_MOTION_DOT": 0.00066533, "MEAN_MOTION_DDOT": 0}, "tle": {"line1": "1 66607U 25270V   25357.77620189  .00066533  00000+0  15823-2 0  9996", "line2": "2 66607  43.0018 128.5532 0003296 268.5661  91.4818 15.40770530  5955"}}, "geometry": {"type": "Point", "coordinates": [-122.25552812252525, 40.29007295267517]}}, {"type": "Feature", "properties": {"norad_id": 66608, "name": "STARLINK-36036", "group": "last-30-days", "lat": -10.249303160491474, "lon": -45.81368843526344, "alt_km": 444.6497027467958, "timestamp": "2025-12-24T16:52:40.177059+00:00", "meta": {"OBJECT_NAME": "STARLINK-36036", "OBJECT_ID": "2025-270W", "EPOCH": "2025-12-24T08:00:03.000384", "MEAN_MOTION": 15.4065439, "ECCENTRICITY": 0.00014782, "INCLINATION": 43.0007, "RA_OF_ASC_NODE": 125.1298, "ARG_OF_PERICENTER": 261.1566, "MEAN_ANOMALY": 39.9734, "EPHEMERIS_TYPE": 0, "CLASSIFICATION_TYPE": "U", "NORAD_CAT_ID": 66608, "ELEMENT_SET_NO": 999, "REV_AT_EPOCH": 610, "BSTAR": 0.0017455014, "MEAN_MOTION_DOT": 0.00073202, "MEAN_MOTION_DDOT": 0}, "tle": {"line1": "1 66608U 25270W   25358.33336806  .00073202  00000+0  17455-2 0  9994", "line2": "2 66608  43.0007 125.1298 0001478 261.1566  39.9734 15.40654390  6106"}}, "geometry": {"type": "Point", "coordinates": [-45.81368843526344, -10.249303160491474]}}, {"type": "Feature", "properties": {"norad_id": 66609, "name": "STARLINK-36034", "group": "last-30-days", "lat": -25.9898208268575, "lon": -25.518094452221334, "alt_km": 445.9760685355541, "timestamp": "2025-12-24T16:52:40.177070+00:00", "meta": {"OBJECT_NAME": "STARLINK-36034", "OBJECT_ID": "2025-270X", "EPOCH": "2025-12-24T08:00:03.000384", "MEAN_MOTION": 15.40643147, "ECCENTRICITY": 0.00013904, "INCLINATION": 43.0005, "RA_OF_ASC_NODE": 125.0696, "ARG_OF_PERICENTER": 274.9619, "MEAN_ANOMALY": 51.0676, "EPHEMERIS_TYPE": 0, "CLASSIFICATION_TYPE": "U", "NORAD_CAT_ID": 66609, "ELEMENT_SET_NO": 999, "REV_AT_EPOCH": 610, "BSTAR": 0.0016974831, "MEAN_MOTION_DOT": 0.00071134, "MEAN_MOTION_DDOT": 0}, "tle": {"line1": "1 66609U 25270X   25358.33336806  .00071134  00000+0  16975-2 0  9993", "line2": "2 66609  43.0005 125.0696 0001390 274.9619  51.0676 15.40643147  6108"}}, "geometry": {"type": "Point", "coordinates": [-25.518094452221334, -25.9898208268575]}}, {"type": "Feature", "properties": {"norad_id": 66610, "name": "STARLINK-35680", "group": "last-30-days", "lat": 29.960204650679124, "lon": -95.06329934018032, "alt_km": 440.4085444583907, "timestamp": "2025-12-24T16:52:40.177080+00:00", "meta": {"OBJECT_NAME": "STARLINK-35680", "OBJECT_ID": "2025-270Y", "EPOCH": "2025-12-24T00:00:00.998784", "MEAN_MOTION": 15.40682995, "ECCENTRICITY": 0.0001894, "INCLINATION": 43.0005, "RA_OF_ASC_NODE": 127.2016, "ARG_OF_PERICENTER": 277.9055, "MEAN_ANOMALY": 269.859, "EPHEMERIS_TYPE": 0, "CLASSIFICATION_TYPE": "U", "NORAD_CAT_ID": 66610, "ELEMENT_SET_NO": 999, "REV_AT_EPOCH": 605, "BSTAR": 0.0001957, "MEAN_MOTION_DOT": 7.875e-05, "MEAN_MOTION_DDOT": 0}, "tle": {"line1": "1 66610U 25270Y   25358.00001156  .00007875  00000+0  19570-3 0  9992", "line2": "2 66610  43.0005 127.2016 0001894 277.9055 269.8590 15.40682995  6058"}}, "geometry": {"type": "Point", "coordinates": [-95.06329934018032, 29.960204650679124]}}, {"type": "Feature", "properties": {"norad_id": 66611, "name": "STARLINK-35583", "group": "last-30-days", "lat": 14.926081840502638, "lon": -73.53374855097407, "alt_km": 442.2254614374924, "timestamp": "2025-12-24T16:52:40.177090+00:00", "meta": {"OBJECT_NAME": "STARLINK-35583", "OBJECT_ID": "2025-270Z", "EPOCH": "2025-12-24T00:00:00.998784", "MEAN_MOTION": 15.40685444, "ECCENTRICITY": 0.0001583, "INCLINATION": 43.0007, "RA_OF_ASC_NODE": 127.1414, "ARG_OF_PERICENTER": 272.4992, "MEAN_ANOMALY": 300.1471, "EPHEMERIS_TYPE": 0, "CLASSIFICATION_TYPE": "U", "NORAD_CAT_ID": 66611, "ELEMENT_SET_NO": 999, "REV_AT_EPOCH": 611, "BSTAR": 0.00013547, "MEAN_MOTION_DOT": 5.357e-05, "MEAN_MOTION_DDOT": 0}, "tle": {"line1": "1 66611U 25270Z   25358.00001156  .00005357  00000+0  13547-3 0  9994", "line2": "2 66611  43.0007 127.1414 0001583 272.4992 300.1471 15.40685444  6113"}}, "geometry": {"type": "Point", "coordinates": [-73.53374855097407, 14.926081840502638]}}, {"type": "Feature", "properties": {"norad_id": 66612, "name": "STARLINK-36039", "group": "last-30-days", "lat": -42.972493709042276, "lon": 32.42828194340052, "alt_km": 445.9793548859798, "timestamp": "2025-12-24T16:52:40.177100+00:00", "meta": {"OBJECT_NAME": "STARLINK-36039", "OBJECT_ID": "2025-270AA", "EPOCH": "2025-12-24T01:42:45.869472", "MEAN_MOTION": 15.40719512, "ECCENTRICITY": 0.00017733, "INCLINATION": 42.9997, "RA_OF_ASC_NODE": 127.3329, "ARG_OF_PERICENTER": 276.9224, "MEAN_ANOMALY": 83.143, "EPHEMERIS_TYPE": 0, "CLASSIFICATION_TYPE": "U", "NORAD_CAT_ID": 66612, "ELEMENT_SET_NO": 999, "REV_AT_EPOCH": 609, "BSTAR": 0.0012841235, "MEAN_MOTION_DOT": 0.00053752, "MEAN_MOTION_DDOT": 0}, "tle": {"line1": "1 66612U 25270AA  25358.07136423  .00053752  00000+0  12841-2 0  9995", "line2": "2 66612  42.9997 127.3329 0001773 276.9224  83.1430 15.40719512  6099"}}, "geometry": {"type": "Point", "coordinates": [32.42828194340052, -42.972493709042276]}}, {"type": "Feature", "properties": {"norad_id": 66613, "name": "STARLINK-36037", "group": "last-30-days", "lat": -38.530910980031024, "lon": 64.91325215622587, "alt_km": 444.98415893769834, "timestamp": "2025-12-24T16:52:40.177110+00:00", "meta": {"OBJECT_NAME": "STARLINK-36037", "OBJECT_ID": "2025-270AB", "EPOCH": "2025-12-24T01:36:18.368928", "MEAN_MOTION": 15.4073626, "ECCENTRICITY": 0.00030368, "INCLINATION": 42.9978, "RA_OF_ASC_NODE": 127.2992, "ARG_OF_PERICENTER": 272.6827, "MEAN_ANOMALY": 87.3682, "EPHEMERIS_TYPE": 0, "CLASSIFICATION_TYPE": "U", "NORAD_CAT_ID": 66613, "ELEMENT_SET_NO": 999, "REV_AT_EPOCH": 609, "BSTAR": 0.0010025875, "MEAN_MOTION_DOT": 0.00041861, "MEAN_MOTION_DDOT": 0}, "tle": {"line1": "1 66613U 25270AB  25358.06687927  .00041861  00000+0  10026-2 0  9996", "line2": "2 66613  42.9978 127.2992 0003036 272.6827  87.3682 15.40736260  6094"}}, "geometry": {"type": "Point", "coordinates": [64.91325215622587, -38.530910980031024]}}, {"type": "Feature", "properties": {"norad_id": 66614, "name": "STARLINK-36040", "group": "last-30-days", "lat": 29.30594475336502, "lon": 160.39569596684262, "alt_km": 439.89621376498417, "timestamp": "2025-12-24T16:52:40.177120+00:00", "meta": {"OBJECT_NAME": "STARLINK-36040", "OBJECT_ID": "2025-270AC", "EPOCH": "2025-12-23T17:20:30.892992", "MEAN_MOTION": 15.40710754, "ECCENTRICITY": 0.00015836, "INCLINATION": 42.9995, "RA_OF_ASC_NODE": 129.0088, "ARG_OF_PERICENTER": 268.7324, "MEAN_ANOMALY": 91.3351, "EPHEMERIS_TYPE": 0, "CLASSIFICATION_TYPE": "U", "NORAD_CAT_ID": 66614, "ELEMENT_SET_NO": 999, "REV_AT_EPOCH": 588, "BSTAR": 0.0006511933, "MEAN_MOTION_DOT": 0.00027004, "MEAN_MOTION_DDOT": 0}, "tle": {"line1": "1 66614U 25270AC  25357.72257978  .00027004  00000+0  65119-3 0  9995", "line2": "2 66614  42.9995 129.0088 0001583 268.7324  91.3351 15.40710754  5887"}}, "geometry": {"type": "Point", "coordinates": [160.39569596684262, 29.30594475336502]}}]}